IRIDIUM 39              
1 25042U 97069D   26008.79922993  .00000914  00000+0  23270-3 0  9990
2 25042  86.3933 123.0284 0016915 345.9690  14.1042 14.49556931478744
IRIDIUM 38              
1 25043U 97069E   26008.62281565  .00000648  00000+0  20630-3 0  9997
2 25043  86.3993 146.8052 0003558 118.8892 241.2664 14.38348083475483
IRIDIUM 42              
1 25077U 97077A   26009.09126477  .00000436  00000+0  14195-3 0  9999
2 25077  86.3999 153.0307 0002374 111.4568 248.6883 14.36562280470757
IRIDIUM 44              
1 25078U 97077B   26009.04521885  .00000413  00000+0  12359-3 0  9992
2 25078  86.3988 134.4344 0003825  83.3416 276.8219 14.40460416473337
IRIDIUM 45              
1 25104U 97082A   26009.10498119  .00025382  00000+0  68856-3 0  9993
2 25104  86.3551 307.1742 0090845 275.1477  83.9410 15.33308292483461
IRIDIUM 24              
1 25105U 97082B   26009.23630314  .00000601  00000+0  17578-3 0  9995
2 25105  86.3918 352.8829 0013320 112.5978 247.6633 14.42362325472915
IRIDIUM 51              
1 25262U 98018A   26009.20226453  .00157370  00000+0  12675-2 0  9999
2 25262  86.3721 312.0775 0047331 157.6893 202.6450 15.68934163478945
IRIDIUM 57              
1 25273U 98019B   26009.22563424  .00000371  00000+0  12087-3 0  9992
2 25273  86.3930  58.8577 0002322  94.3705 265.7757 14.36075461454354
